{
  "type": "FeatureCollection",
  "features": [
    {
      "type": "Feature",
      "properties": {
        "norad_id": 36828,
        "name": "BEIDOU-2 IGSO-1 (C06)",
        "group": "beidou",
        "lat": 14.802661134136235,
        "lon": -26.280057366304067,
        "alt_km": 35656.205430567294,
        "timestamp": "2025-12-06T09:34:17.178725+00:00",
        "meta_object_name": "BEIDOU-2 IGSO-1 (C06)",
        "meta_object_id": "2010-036A",
        "meta_epoch": "2025-12-05T10:47:07.730592",
        "meta_mean_motion": 1.00278097,
        "meta_eccentricity": 0.00512452,
        "meta_inclination": 54.2848,
        "meta_ra_of_asc_node": 164.7141,
        "meta_arg_of_pericenter": 215.7912,
        "meta_mean_anomaly": 323.5719,
        "meta_ephemeris_type": 0,
        "meta_classification_type": "U",
        "meta_norad_cat_id": 36828,
        "meta_element_set_no": 999,
        "meta_rev_at_epoch": 5615,
        "meta_bstar": 0,
        "meta_mean_motion_dot": -4.5e-07,
        "meta_mean_motion_ddot": 0,
        "tle_line1": "1 36828U 10036A   25339.44939503 -.00000045  00000+0  00000+0 0  9994",
        "tle_line2": "2 36828  54.2848 164.7141 0051245 215.7912 323.5719  1.00278097 56159"
      },
      "geometry": {
        "type": "Point",
        "coordinates": [
          -26.280057366304067,
          14.802661134136235
        ]
      }
    },
    {
      "type": "Feature",
      "properties": {
        "norad_id": 37210,
        "name": "BEIDOU-2 G4 (C04)",
        "group": "beidou",
        "lat": -2.4373114843619876,
        "lon": 19.22795933230322,
        "alt_km": 35809.63708011225,
        "timestamp": "2025-12-06T09:34:17.178748+00:00",
        "meta_object_name": "BEIDOU-2 G4 (C04)",
        "meta_object_id": "2010-057A",
        "meta_epoch": "2025-12-05T21:18:21.305376",
        "meta_mean_motion": 1.00271317,
        "meta_eccentricity": 0.00109569,
        "meta_inclination": 3.1668,
        "meta_ra_of_asc_node": 69.955,
        "meta_arg_of_pericenter": 189.3794,
        "meta_mean_anomaly": 295.2635,
        "meta_ephemeris_type": 0,
        "meta_classification_type": "U",
        "meta_norad_cat_id": 37210,
        "meta_element_set_no": 999,
        "meta_rev_at_epoch": 5535,
        "meta_bstar": 0,
        "meta_mean_motion_dot": -1.04e-06,
        "meta_mean_motion_ddot": 0,
        "tle_line1": "1 37210U 10057A   25339.88774659 -.00000104  00000+0  00000+0 0  9996",
        "tle_line2": "2 37210   3.1668  69.9550 0010956 189.3794 295.2635  1.00271317 55357"
      },
      "geometry": {
        "type": "Point",
        "coordinates": [
          19.22795933230322,
          -2.4373114843619876
        ]
      }
    },
    {
      "type": "Feature",
      "properties": {
        "norad_id": 37256,
        "name": "BEIDOU-2 IGSO-2 (C07)",
        "group": "beidou",
        "lat": 35.782996275335094,
        "lon": -45.24176743836849,
        "alt_km": 35976.68197222333,
        "timestamp": "2025-12-06T09:34:17.178764+00:00",
        "meta_object_name": "BEIDOU-2 IGSO-2 (C07)",
        "meta_object_id": "2010-068A",
        "meta_epoch": "2025-12-03T17:22:36.030432",
        "meta_mean_motion": 1.0028871,
        "meta_eccentricity": 0.00492335,
        "meta_inclination": 47.9043,
        "meta_ra_of_asc_node": 274.2613,
        "meta_arg_of_pericenter": 216.1442,
        "meta_mean_anomaly": 310.2369,
        "meta_ephemeris_type": 0,
        "meta_classification_type": "U",
        "meta_norad_cat_id": 37256,
        "meta_element_set_no": 999,
        "meta_rev_at_epoch": 5483,
        "meta_bstar": 0,
        "meta_mean_motion_dot": -2.25e-06,
        "meta_mean_motion_ddot": 0,
        "tle_line1": "1 37256U 10068A   25337.72402813 -.00000225  00000+0  00000+0 0  9993",
        "tle_line2": "2 37256  47.9043 274.2613 0049233 216.1442 310.2369  1.00288710 54839"
      },
      "geometry": {
        "type": "Point",
        "coordinates": [
          -45.24176743836849,
          35.782996275335094
        ]
      }
    },
    {
      "type": "Feature",
      "properties": {
        "norad_id": 37384,
        "name": "BEIDOU-2 IGSO-3 (C08)",
        "group": "beidou",
        "lat": -58.6506337059495,
        "lon": -18.086790974479527,
        "alt_km": 35813.86641431493,
        "timestamp": "2025-12-06T09:34:17.178777+00:00",
        "meta_object_name": "BEIDOU-2 IGSO-3 (C08)",
        "meta_object_id": "2011-013A",
        "meta_epoch": "2025-12-03T14:52:09.520896",
        "meta_mean_motion": 1.00272128,
        "meta_eccentricity": 0.00353922,
        "meta_inclination": 62.1308,
        "meta_ra_of_asc_node": 42.005,
        "meta_arg_of_pericenter": 186.5359,
        "meta_mean_anomaly": 174.9093,
        "meta_ephemeris_type": 0,
        "meta_classification_type": "U",
        "meta_norad_cat_id": 37384,
        "meta_element_set_no": 999,
        "meta_rev_at_epoch": 5370,
        "meta_bstar": 0,
        "meta_mean_motion_dot": -1.99e-06,
        "meta_mean_motion_ddot": 0,
        "tle_line1": "1 37384U 11013A   25337.61955464 -.00000199  00000+0  00000+0 0  9999",
        "tle_line2": "2 37384  62.1308  42.0050 0035392 186.5359 174.9093  1.00272128 53708"
      },
      "geometry": {
        "type": "Point",
        "coordinates": [
          -18.086790974479527,
          -58.6506337059495
        ]
      }
    },
    {
      "type": "Feature",
      "properties": {
        "norad_id": 37763,
        "name": "BEIDOU-2 IGSO-4 (C09)",
        "group": "beidou",
        "lat": 28.53110706330522,
        "lon": -35.40181713732202,
        "alt_km": 35729.21661062929,
        "timestamp": "2025-12-06T09:34:17.178790+00:00",
        "meta_object_name": "BEIDOU-2 IGSO-4 (C09)",
        "meta_object_id": "2011-038A",
        "meta_epoch": "2025-12-01T12:32:09.960864",
        "meta_mean_motion": 1.00284074,
        "meta_eccentricity": 0.01487808,
        "meta_inclination": 54.5808,
        "meta_ra_of_asc_node": 167.4476,
        "meta_arg_of_pericenter": 230.2031,
        "meta_mean_anomaly": 315.0387,
        "meta_ephemeris_type": 0,
        "meta_classification_type": "U",
        "meta_norad_cat_id": 37763,
        "meta_element_set_no": 999,
        "meta_rev_at_epoch": 5266,
        "meta_bstar": 0,
        "meta_mean_motion_dot": 1.01e-06,
        "meta_mean_motion_ddot": 0,
        "tle_line1": "1 37763U 11038A   25335.52233751  .00000101  00000+0  00000+0 0  9995",
        "tle_line2": "2 37763  54.5808 167.4476 0148780 230.2031 315.0387  1.00284074 52664"
      },
      "geometry": {
        "type": "Point",
        "coordinates": [
          -35.40181713732202,
          28.53110706330522
        ]
      }
    },
    {
      "type": "Feature",
      "properties": {
        "norad_id": 37948,
        "name": "BEIDOU-2 IGSO-5 (C10)",
        "group": "beidou",
        "lat": 27.103667592513464,
        "lon": -58.73579006792917,
        "alt_km": 36241.10143906248,
        "timestamp": "2025-12-06T09:34:17.178803+00:00",
        "meta_object_name": "BEIDOU-2 IGSO-5 (C10)",
        "meta_object_id": "2011-073A",
        "meta_epoch": "2025-12-05T19:16:03.972000",
        "meta_mean_motion": 1.00291877,
        "meta_eccentricity": 0.01105894,
        "meta_inclination": 48.0339,
        "meta_ra_of_asc_node": 273.9433,
        "meta_arg_of_pericenter": 222.1593,
        "meta_mean_anomaly": 320.3155,
        "meta_ephemeris_type": 0,
        "meta_classification_type": "U",
        "meta_norad_cat_id": 37948,
        "meta_element_set_no": 999,
        "meta_rev_at_epoch": 5119,
        "meta_bstar": 0,
        "meta_mean_motion_dot": -1.79e-06,
        "meta_mean_motion_ddot": 0,
        "tle_line1": "1 37948U 11073A   25339.80282375 -.00000179  00000+0  00000+0 0  9996",
        "tle_line2": "2 37948  48.0339 273.9433 0110589 222.1593 320.3155  1.00291877 51199"
      },
      "geometry": {
        "type": "Point",
        "coordinates": [
          -58.73579006792917,
          27.103667592513464
        ]
      }
    },
    {
      "type": "Feature",
      "properties": {
        "norad_id": 38091,
        "name": "BEIDOU-2 G5 (C05)",
        "group": "beidou",
        "lat": -1.4239313997368193,
        "lon": -82.35621308762312,
        "alt_km": 35736.00506504837,
        "timestamp": "2025-12-06T09:34:17.178815+00:00",
        "meta_object_name": "BEIDOU-2 G5 (C05)",
        "meta_object_id": "2012-008A",
        "meta_epoch": "2025-12-05T21:34:38.508384",
        "meta_mean_motion": 1.00273116,
        "meta_eccentricity": 0.00124802,
        "meta_inclination": 3.0913,
        "meta_ra_of_asc_node": 70.7296,
        "meta_arg_of_pericenter": 226.0355,
        "meta_mean_anomaly": 160.5592,
        "meta_ephemeris_type": 0,
        "meta_classification_type": "U",
        "meta_norad_cat_id": 38091,
        "meta_element_set_no": 999,
        "meta_rev_at_epoch": 5043,
        "meta_bstar": 0,
        "meta_mean_motion_dot": 6.4e-07,
        "meta_mean_motion_ddot": 0,
        "tle_line1": "1 38091U 12008A   25339.89905681  .00000064  00000+0  00000+0 0  9998",
        "tle_line2": "2 38091   3.0913  70.7296 0012480 226.0355 160.5592  1.00273116 50439"
      },
      "geometry": {
        "type": "Point",
        "coordinates": [
          -82.35621308762312,
          -1.4239313997368193
        ]
      }
    }
  ]
}